,name,city,state,search_string,url,geocode,lat,lon
0,Anza Borrego Desert State Park,,California,"Anza Borrego Desert State Park, California",https://www.parks.ca.gov/?page_id=638,"(33.100492, -116.3013266)",33.100492,-116.3013266
1,Big Basin Redwoods State Park,,California,"Big Basin Redwoods State Park, California",https://www.parks.ca.gov/?page_id=540,"(37.1666329, -122.2509729)",37.1666329,-122.2509729
2,Bothe Napa Valley State Park,,California,"Bothe Napa Valley State Park, California",https://www.parks.ca.gov/?page_id=477,"(38.5429637, -122.5374817)",38.5429637,-122.5374817
3,Brannan Island State Recreation Area,,California,"Brannan Island State Recreation Area, California",https://www.parks.ca.gov/?page_id=487,"(38.1102102, -121.696818)",38.1102102,-121.696818
4,Candlestick Point State Recreation Area,,California,"Candlestick Point State Recreation Area, California",https://www.parks.ca.gov/?page_id=519,"(37.7127107, -122.3815252)",37.7127107,-122.3815252
5,Carpinteria State Beach,,California,"Carpinteria State Beach, California",https://www.parks.ca.gov/?page_id=599,"(34.3930467, -119.5242547)",34.3930467,-119.5242547
6,Castle Crags State Park,,California,"Castle Crags State Park, California",https://www.parks.ca.gov/?page_id=454,"(41.1482103, -122.3213725)",41.1482103,-122.3213725
7,Castle Rock State Park,,California,"Castle Rock State Park, California",https://www.parks.ca.gov/?page_id=538,"(37.22982349999999, -122.1252175)",37.22982349999999,-122.1252175
8,Caswell Memorial State Park,,California,"Caswell Memorial State Park, California",https://www.parks.ca.gov/?page_id=557,"(37.693819, -121.1874767)",37.693819,-121.1874767
9,China Camp State Park,,California,"China Camp State Park, California",https://www.parks.ca.gov/?page_id=466,"(38.0012549, -122.4910712)",38.0012549,-122.4910712
10,Clear Lake State Park,,California,"Clear Lake State Park, California",https://www.parks.ca.gov/?page_id=473,"(39.0106312, -122.8139383)",39.0106312,-122.8139383
11,D  L  Bliss State Park,,California,"D  L  Bliss State Park, California",https://www.parks.ca.gov/?page_id=505,"(38.97789909999999, -120.1027489)",38.97789909999999,-120.1027489
12,Del Norte Coast Redwoods State Park,,California,"Del Norte Coast Redwoods State Park, California",https://www.parks.ca.gov/?page_id=414,"(41.6680924, -124.1139454)",41.6680924,-124.1139454
13,Donner Memorial State Park,,California,"Donner Memorial State Park, California",https://www.parks.ca.gov/?page_id=503,"(39.3159261, -120.239782)",39.3159261,-120.239782
14,El Capit n State Beach,,California,"El Capit n State Beach, California",https://www.parks.ca.gov/?page_id=601,"(34.4595891, -120.0245304)",34.4595891,-120.0245304
15,Emma Wood  State Beach,,California,"Emma Wood  State Beach, California",https://www.parks.ca.gov/?page_id=604,"(34.2932299, -119.3398523)",34.2932299,-119.3398523
16,Gaviota State Park,,California,"Gaviota State Park, California",https://www.parks.ca.gov/?page_id=606,"(34.4733557, -120.229478)",34.4733557,-120.229478
17,Grizzly Creek Redwoods State Park,,California,"Grizzly Creek Redwoods State Park, California",https://www.parks.ca.gov/?page_id=421,"(40.4867464, -123.9050925)",40.4867464,-123.9050925
18,Grover Hot Springs State Park,,California,"Grover Hot Springs State Park, California",https://www.parks.ca.gov/?page_id=508,"(38.6960394, -119.8438595)",38.6960394,-119.8438595
19,Half Moon Bay State Beach,,California,"Half Moon Bay State Beach, California",https://www.parks.ca.gov/?page_id=531,"(37.4760761, -122.4489731)",37.4760761,-122.4489731
20,Hearst San Simeon State Park,,California,"Hearst San Simeon State Park, California",https://www.parks.ca.gov/?page_id=590,"(35.5926428, -121.1166162)",35.5926428,-121.1166162
21,Henry W  Coe State Park,,California,"Henry W  Coe State Park, California",https://www.parks.ca.gov/?page_id=561,"(37.1914002, -121.4359759)",37.1914002,-121.4359759
22,Hollister Hills State Vehicular Recreation Area,,California,"Hollister Hills State Vehicular Recreation Area, California",https://www.parks.ca.gov/?page_id=1179,"(36.7746599, -121.4250707)",36.7746599,-121.4250707
23,Humboldt Redwoods State Park,,California,"Humboldt Redwoods State Park, California",https://www.parks.ca.gov/?page_id=425,"(40.3146515, -123.9776858)",40.3146515,-123.9776858
24,Jedediah Smith Redwoods State Park,,California,"Jedediah Smith Redwoods State Park, California",https://www.parks.ca.gov/?page_id=413,"(41.7955087, -124.1046827)",41.7955087,-124.1046827
25,Lake Perris State Recreation Area,,California,"Lake Perris State Recreation Area, California",https://www.parks.ca.gov/?page_id=651,"(33.8569506, -117.1764723)",33.8569506,-117.1764723
26,Leo Carrillo State Park,,California,"Leo Carrillo State Park, California",https://www.parks.ca.gov/?page_id=616,"(34.0436171, -118.9358055)",34.0436171,-118.9358055
27,MacKerricher State Park,,California,"MacKerricher State Park, California",https://www.parks.ca.gov/?page_id=436,"(39.4884502, -123.7878557)",39.4884502,-123.7878557
28,Manchester State Park,,California,"Manchester State Park, California",https://www.parks.ca.gov/?page_id=437,"(38.9844288, -123.7067125)",38.9844288,-123.7067125
29,McArthur Burney Falls Memorial State Park,,California,"McArthur Burney Falls Memorial State Park, California",https://www.parks.ca.gov/?page_id=455,"(41.0124498, -121.6502456)",41.0124498,-121.6502456
30,McGrath State Beach,,California,"McGrath State Beach, California",https://www.parks.ca.gov/?page_id=607,"(34.221001, -119.2596809)",34.221001,-119.2596809
31,Morro Bay State Park,,California,"Morro Bay State Park, California",https://www.parks.ca.gov/?page_id=594,"(35.3526935, -120.8392652)",35.3526935,-120.8392652
32,Mount Diablo State Park,,California,"Mount Diablo State Park, California",https://www.parks.ca.gov/?page_id=517,"(37.8815913, -121.9141528)",37.8815913,-121.9141528
33,Mount San Jacinto State Park,,California,"Mount San Jacinto State Park, California",https://www.parks.ca.gov/?page_id=636,"(33.814463, -116.6791834)",33.814463,-116.6791834
34,Mount Tamalpais State Park,,California,"Mount Tamalpais State Park, California",https://www.parks.ca.gov/?page_id=471,"(37.9235439, -122.5964705)",37.9235439,-122.5964705
35,New Brighton State Beach,,California,"New Brighton State Beach, California",https://www.parks.ca.gov/?page_id=542,"(36.9784397, -121.9382294)",36.9784397,-121.9382294
36,Ocotillo Wells State Vehicular Recreation Area,,California,"Ocotillo Wells State Vehicular Recreation Area, California",https://www.parks.ca.gov/?page_id=1217,"(33.1559056, -116.1675902)",33.1559056,-116.1675902
37,Pfeiffer Big Sur State Park,,California,"Pfeiffer Big Sur State Park, California",https://www.parks.ca.gov/?page_id=570,"(36.2475861, -121.7790088)",36.2475861,-121.7790088
38,Point Mugu State Park,,California,"Point Mugu State Park, California",https://www.parks.ca.gov/?page_id=630,"(34.08556240000001, -119.060935)",34.08556240000001,-119.060935
39,Portola Redwoods State Park,,California,"Portola Redwoods State Park, California",https://www.parks.ca.gov/?page_id=539,"(37.2621372, -122.2123153)",37.2621372,-122.2123153
40,Prairie Creek Redwoods State Park,,California,"Prairie Creek Redwoods State Park, California",https://www.parks.ca.gov/?page_id=415,"(41.4016041, -124.0416172)",41.4016041,-124.0416172
41,Refugio State Beach,,California,"Refugio State Beach, California",https://www.parks.ca.gov/?page_id=603,"(34.4631659, -120.0701354)",34.4631659,-120.0701354
42,Richardson Grove State Park,,California,"Richardson Grove State Park, California",https://www.parks.ca.gov/?page_id=422,"(40.01925689999999, -123.7925147)",40.01925689999999,-123.7925147
43,Russian Gulch State Park,,California,"Russian Gulch State Park, California",https://www.parks.ca.gov/?page_id=432,"(39.3325257, -123.8061091)",39.3325257,-123.8061091
44,Salt Point State Park,,California,"Salt Point State Park, California",https://www.parks.ca.gov/?page_id=453,"(38.57648470000001, -123.3317814)",38.57648470000001,-123.3317814
45,Salton Sea State Recreation Area,,California,"Salton Sea State Recreation Area, California",https://www.parks.ca.gov/?page_id=639,"(33.5088385, -115.9181159)",33.5088385,-115.9181159
46,Samuel P  Taylor State Park,,California,"Samuel P  Taylor State Park, California",https://www.parks.ca.gov/?page_id=469,"(38.0242949, -122.7213981)",38.0242949,-122.7213981
47,Silverwood Lake State Recreation Area,,California,"Silverwood Lake State Recreation Area, California",https://www.parks.ca.gov/?page_id=650,"(34.2857189, -117.3525307)",34.2857189,-117.3525307
48,Sinkyone Wilderness State Park,,California,"Sinkyone Wilderness State Park, California",https://www.parks.ca.gov/?page_id=429,"(39.9202867, -123.9396803)",39.9202867,-123.9396803
49,Sonoma Coast State Park,,California,"Sonoma Coast State Park, California",https://www.parks.ca.gov/?page_id=451,"(38.4242109, -123.1011733)",38.4242109,-123.1011733
50,Standish Hickey State Recreation Area,,California,"Standish Hickey State Recreation Area, California",https://www.parks.ca.gov/?page_id=423,"(39.8774712, -123.7375985)",39.8774712,-123.7375985
51,Sue meg State Park,,California,"Sue meg State Park, California",https://www.parks.ca.gov/?page_id=417,"(41.1364671, -124.1552219)",41.1364671,-124.1552219
52,Sunset State Beach,,California,"Sunset State Beach, California",https://www.parks.ca.gov/?page_id=544,"(36.8867526, -121.8325358)",36.8867526,-121.8325358
53,Turlock Lake State Recreation Area,,California,"Turlock Lake State Recreation Area, California",https://www.parks.ca.gov/?page_id=555,"(37.6258955, -120.5909176)",37.6258955,-120.5909176
54,Van Damme State Park,,California,"Van Damme State Park, California",https://www.parks.ca.gov/?page_id=433,"(39.2757228, -123.7642849)",39.2757228,-123.7642849
